{
  "type": "FeatureCollection",
  "features": [
    {
      "type": "Feature",
      "properties": {
        "norad_id": 36083,
        "name": "IRIDIUM 33 DEB",
        "group": "iridium-33-debris",
        "lat": 41.449459730318395,
        "lon": 36.97809991157814,
        "alt_km": 762.2998082238482,
        "timestamp": "2025-12-13T16:48:33.095266+00:00",
        "meta_object_name": "IRIDIUM 33 DEB",
        "meta_object_id": "1997-051VQ",
        "meta_epoch": "2025-12-06T21:32:26.892672",
        "meta_mean_motion": 14.43175138,
        "meta_eccentricity": 0.00247889,
        "meta_inclination": 86.3442,
        "meta_ra_of_asc_node": 36.6683,
        "meta_arg_of_pericenter": 243.3344,
        "meta_mean_anomaly": 116.5319,
        "meta_ephemeris_type": 0,
        "meta_classification_type": "U",
        "meta_norad_cat_id": 36083,
        "meta_element_set_no": 999,
        "meta_rev_at_epoch": 85365,
        "meta_bstar": 0.00098432537,
        "meta_mean_motion_dot": 3.337e-05,
        "meta_mean_motion_ddot": 0,
        "tle_line1": "1 36083U 97051VQ  25340.89753348  .00003337  00000+0  98433-3 0  9998",
        "tle_line2": "2 36083  86.3442  36.6683 0024788 243.3344 116.5319 14.43175138853653"
      },
      "geometry": {
        "type": "Point",
        "coordinates": [
          36.97809991157814,
          41.449459730318395
        ]
      }
    },
    {
      "type": "Feature",
      "properties": {
        "norad_id": 36390,
        "name": "IRIDIUM 33 DEB",
        "group": "iridium-33-debris",
        "lat": -34.973782778271456,
        "lon": -63.64787108753174,
        "alt_km": 676.6407883141101,
        "timestamp": "2025-12-13T16:48:33.095276+00:00",
        "meta_object_name": "IRIDIUM 33 DEB",
        "meta_object_id": "1997-051VU",
        "meta_epoch": "2025-12-10T04:13:18.491808",
        "meta_mean_motion": 14.73548967,
        "meta_eccentricity": 0.00303441,
        "meta_inclination": 86.2912,
        "meta_ra_of_asc_node": 300.5678,
        "meta_arg_of_pericenter": 170.4809,
        "meta_mean_anomaly": 189.6991,
        "meta_ephemeris_type": 0,
        "meta_classification_type": "U",
        "meta_norad_cat_id": 36390,
        "meta_element_set_no": 999,
        "meta_rev_at_epoch": 66224,
        "meta_bstar": 0.0016206136,
        "meta_mean_motion_dot": 0.00010646,
        "meta_mean_motion_ddot": 0,
        "tle_line1": "1 36390U 97051VU  25344.17590847  .00010646  00000+0  16206-2 0  9995",
        "tle_line2": "2 36390  86.2912 300.5678 0030344 170.4809 189.6991 14.73548967662240"
      },
      "geometry": {
        "type": "Point",
        "coordinates": [
          -63.64787108753174,
          -34.973782778271456
        ]
      }
    },
    {
      "type": "Feature",
      "properties": {
        "norad_id": 36483,
        "name": "IRIDIUM 33 DEB",
        "group": "iridium-33-debris",
        "lat": -34.27056696933748,
        "lon": -125.4492073531235,
        "alt_km": 746.0210125842477,
        "timestamp": "2025-12-13T16:48:33.095286+00:00",
        "meta_object_name": "IRIDIUM 33 DEB",
        "meta_object_id": "1997-051VZ",
        "meta_epoch": "2025-12-10T11:24:52.773984",
        "meta_mean_motion": 14.45797209,
        "meta_eccentricity": 0.00110254,
        "meta_inclination": 86.3794,
        "meta_ra_of_asc_node": 53.458,
        "meta_arg_of_pericenter": 132.1914,
        "meta_mean_anomaly": 228.0226,
        "meta_ephemeris_type": 0,
        "meta_classification_type": "U",
        "meta_norad_cat_id": 36483,
        "meta_element_set_no": 999,
        "meta_rev_at_epoch": 65113,
        "meta_bstar": 0.00078050397,
        "meta_mean_motion_dot": 2.789e-05,
        "meta_mean_motion_ddot": 0,
        "tle_line1": "1 36483U 97051VZ  25344.47561081  .00002789  00000+0  78050-3 0  9994",
        "tle_line2": "2 36483  86.3794  53.4580 0011025 132.1914 228.0226 14.45797209651134"
      },
      "geometry": {
        "type": "Point",
        "coordinates": [
          -125.4492073531235,
          -34.27056696933748
        ]
      }
    },
    {
      "type": "Feature",
      "properties": {
        "norad_id": 36490,
        "name": "IRIDIUM 33 DEB",
        "group": "iridium-33-debris",
        "lat": -35.99739258546785,
        "lon": -167.323435312057,
        "alt_km": 650.6600755592062,
        "timestamp": "2025-12-13T16:48:33.095296+00:00",
        "meta_object_name": "IRIDIUM 33 DEB",
        "meta_object_id": "1997-051WG",
        "meta_epoch": "2025-12-10T08:06:56.843424",
        "meta_mean_motion": 14.76107683,
        "meta_eccentricity": 0.000555,
        "meta_inclination": 86.3658,
        "meta_ra_of_asc_node": 11.546,
        "meta_arg_of_pericenter": 88.8024,
        "meta_mean_anomaly": 271.3831,
        "meta_ephemeris_type": 0,
        "meta_classification_type": "U",
        "meta_norad_cat_id": 36490,
        "meta_element_set_no": 999,
        "meta_rev_at_epoch": 86449,
        "meta_bstar": 0.0023364,
        "meta_mean_motion_dot": 0.00016171,
        "meta_mean_motion_ddot": 0,
        "tle_line1": "1 36490U 97051WG  25344.33815791  .00016171  00000+0  23364-2 0  9994",
        "tle_line2": "2 36490  86.3658  11.5460 0005550  88.8024 271.3831 14.76107683864491"
      },
      "geometry": {
        "type": "Point",
        "coordinates": [
          -167.323435312057,
          -35.99739258546785
        ]
      }
    },
    {
      "type": "Feature",
      "properties": {
        "norad_id": 36493,
        "name": "IRIDIUM 33 DEB",
        "group": "iridium-33-debris",
        "lat": 78.47740916138378,
        "lon": 173.0428277562378,
        "alt_km": 670.2174622566863,
        "timestamp": "2025-12-13T16:48:33.095306+00:00",
        "meta_object_name": "IRIDIUM 33 DEB",
        "meta_object_id": "1997-051WK",
        "meta_epoch": "2025-12-10T19:30:39.824352",
        "meta_mean_motion": 14.6519132,
        "meta_eccentricity": 0.00104457,
        "meta_inclination": 86.3571,
        "meta_ra_of_asc_node": 12.5357,
        "meta_arg_of_pericenter": 11.652,
        "meta_mean_anomaly": 348.4933,
        "meta_ephemeris_type": 0,
        "meta_classification_type": "U",
        "meta_norad_cat_id": 36493,
        "meta_element_set_no": 999,
        "meta_rev_at_epoch": 74490,
        "meta_bstar": 0.0018600988,
        "meta_mean_motion_dot": 0.00010041,
        "meta_mean_motion_ddot": 0,
        "tle_line1": "1 36493U 97051WK  25344.81296093  .00010041  00000+0  18601-2 0  9996",
        "tle_line2": "2 36493  86.3571  12.5357 0010445  11.6520 348.4933 14.65191320744909"
      },
      "geometry": {
        "type": "Point",
        "coordinates": [
          173.0428277562378,
          78.47740916138378
        ]
      }
    },
    {
      "type": "Feature",
      "properties": {
        "norad_id": 37548,
        "name": "IRIDIUM 33 DEB",
        "group": "iridium-33-debris",
        "lat": -59.934496319488794,
        "lon": -130.72126012562669,
        "alt_km": 718.1521812352012,
        "timestamp": "2025-12-13T16:48:33.095315+00:00",
        "meta_object_name": "IRIDIUM 33 DEB",
        "meta_object_id": "1997-051XH",
        "meta_epoch": "2025-12-10T21:30:59.995872",
        "meta_mean_motion": 14.51276893,
        "meta_eccentricity": 0.0025313,
        "meta_inclination": 86.3513,
        "meta_ra_of_asc_node": 44.17,
        "meta_arg_of_pericenter": 194.8863,
        "meta_mean_anomaly": 165.16,
        "meta_ephemeris_type": 0,
        "meta_classification_type": "U",
        "meta_norad_cat_id": 37548,
        "meta_element_set_no": 999,
        "meta_rev_at_epoch": 65505,
        "meta_bstar": 0.0015557,
        "meta_mean_motion_dot": 6.233e-05,
        "meta_mean_motion_ddot": 0,
        "tle_line1": "1 37548U 97051XH  25344.89652773  .00006233  00000+0  15557-2 0  9992",
        "tle_line2": "2 37548  86.3513  44.1700 0025313 194.8863 165.1600 14.51276893655050"
      },
      "geometry": {
        "type": "Point",
        "coordinates": [
          -130.72126012562669,
          -59.934496319488794
        ]
      }
    },
    {
      "type": "Feature",
      "properties": {
        "norad_id": 37550,
        "name": "IRIDIUM 33 DEB",
        "group": "iridium-33-debris",
        "lat": -29.415775395463026,
        "lon": 21.402544048708005,
        "alt_km": 678.751256452153,
        "timestamp": "2025-12-13T16:48:33.095325+00:00",
        "meta_object_name": "IRIDIUM 33 DEB",
        "meta_object_id": "1997-051XK",
        "meta_epoch": "2025-12-11T20:44:57.108768",
        "meta_mean_motion": 14.67192319,
        "meta_eccentricity": 0.0005511,
        "meta_inclination": 86.3777,
        "meta_ra_of_asc_node": 24.2628,
        "meta_arg_of_pericenter": 113.4096,
        "meta_mean_anomaly": 246.7698,
        "meta_ephemeris_type": 0,
        "meta_classification_type": "U",
        "meta_norad_cat_id": 37550,
        "meta_element_set_no": 999,
        "meta_rev_at_epoch": 86320,
        "meta_bstar": 0.0020084,
        "meta_mean_motion_dot": 0.00011332,
        "meta_mean_motion_ddot": 0,
        "tle_line1": "1 37550U 97051XK  25345.86454987  .00011332  00000+0  20084-2 0  9997",
        "tle_line2": "2 37550  86.3777  24.2628 0005511 113.4096 246.7698 14.67192319863204"
      },
      "geometry": {
        "type": "Point",
        "coordinates": [
          21.402544048708005,
          -29.415775395463026
        ]
      }
    }
  ]
}